[{"OBJECT_NAME":"STARLINK-1724","OBJECT_ID":"2020-062BC","EPOCH":"2026-03-09T21:09:06.323616","MEAN_MOTION":15.52994502,"ECCENTRICITY":6.461e-5,"INCLINATION":53.03,"RA_OF_ASC_NODE":286.312,"ARG_OF_PERICENTER":290.0193,"MEAN_ANOMALY":70.0747,"EPHEMERIS_TYPE":0,"CLASSIFICATION_TYPE":"U","NORAD_CAT_ID":46375,"ELEMENT_SET_NO":999,"REV_AT_EPOCH":30559,"BSTAR":0.0019221523,"MEAN_MOTION_DOT":0.00123399,"MEAN_MOTION_DDOT":0},{"OBJECT_NAME":"OBJECT C","OBJECT_ID":"2022-098C","EPOCH":"2026-03-09T22:40:01.259328","MEAN_MOTION":15.55729173,"ECCENTRICITY":0.00020778,"INCLINATION":97.5492,"RA_OF_ASC_NODE":192.7578,"ARG_OF_PERICENTER":48.6674,"MEAN_ANOMALY":311.4758,"EPHEMERIS_TYPE":0,"CLASSIFICATION_TYPE":"U","NORAD_CAT_ID":53446,"ELEMENT_SET_NO":999,"REV_AT_EPOCH":19916,"BSTAR":0.00087752054,"MEAN_MOTION_DOT":0.00060688,"MEAN_MOTION_DDOT":0}]
